TEVEL2-6                
1 63215U 25052F   26068.64958975  .00021046  00000+0  70909-3 0  9996
2 63215  97.4016 325.0381 0004769  95.6604 264.5181 15.30760889 54861
STARLINK-34120          
1 63898U 25095J   26068.75807320  .00041047  00000+0  14887-2 0  9994
2 63898  43.0014 175.3680 0001716 266.8554  93.2101 15.27671911 47804
